[{"OBJECT_NAME":"SALSAT","OBJECT_ID":"2020-068K","EPOCH":"2026-03-09T22:26:21.804576","MEAN_MOTION":15.28191989,"ECCENTRICITY":0.00082652,"INCLINATION":97.8859,"RA_OF_ASC_NODE":66.0795,"ARG_OF_PERICENTER":295.8051,"MEAN_ANOMALY":64.2334,"EPHEMERIS_TYPE":0,"CLASSIFICATION_TYPE":"U","NORAD_CAT_ID":46495,"ELEMENT_SET_NO":999,"REV_AT_EPOCH":30019,"BSTAR":0.00040842582,"MEAN_MOTION_DOT":0.00011156,"MEAN_MOTION_DDOT":0},{"OBJECT_NAME":"STARLINK-36146","OBJECT_ID":"2026-005Y","EPOCH":"2026-03-09T12:06:16.216704","MEAN_MOTION":15.27600398,"ECCENTRICITY":0.00020689,"INCLINATION":42.9999,"RA_OF_ASC_NODE":239.4128,"ARG_OF_PERICENTER":283.3401,"MEAN_ANOMALY":76.722,"EPHEMERIS_TYPE":0,"CLASSIFICATION_TYPE":"U","NORAD_CAT_ID":67426,"ELEMENT_SET_NO":999,"REV_AT_EPOCH":865,"BSTAR":0.0011987752,"MEAN_MOTION_DOT":0.00032894,"MEAN_MOTION_DDOT":0}]
